<?xml version="1.0" encoding="UTF-8"?>
<ndm xmlns:xsi="http://www.w3.org/2001/XMLSchema-instance" xsi:noNamespaceSchemaLocation="https://sanaregistry.org/r/ndmxml_unqualified/ndmxml-2.0.0-master-2.0.xsd">
<omm id="CCSDS_OMM_VERS" version="2.0">
<header><CREATION_DATE/><ORIGINATOR/></header><body><segment><metadata><OBJECT_NAME>GLOBALSTAR M057</OBJECT_NAME><OBJECT_ID>1999-058A</OBJECT_ID><CENTER_NAME>EARTH</CENTER_NAME><REF_FRAME>TEME</REF_FRAME><TIME_SYSTEM>UTC</TIME_SYSTEM><MEAN_ELEMENT_THEORY>SGP4</MEAN_ELEMENT_THEORY></metadata><data><meanElements><EPOCH>2024-10-13T11:56:20.035968</EPOCH><MEAN_MOTION>12.24801987</MEAN_MOTION><ECCENTRICITY>.0002243</ECCENTRICITY><INCLINATION>52.0004</INCLINATION><RA_OF_ASC_NODE>328.2962</RA_OF_ASC_NODE><ARG_OF_PERICENTER>225.2446</ARG_OF_PERICENTER><MEAN_ANOMALY>134.8221</MEAN_ANOMALY></meanElements><tleParameters><EPHEMERIS_TYPE>0</EPHEMERIS_TYPE><CLASSIFICATION_TYPE>U</CLASSIFICATION_TYPE><NORAD_CAT_ID>25943</NORAD_CAT_ID><ELEMENT_SET_NO>999</ELEMENT_SET_NO><REV_AT_EPOCH>13670</REV_AT_EPOCH><BSTAR>.76642E-3</BSTAR><MEAN_MOTION_DOT>-.9E-7</MEAN_MOTION_DOT><MEAN_MOTION_DDOT>0</MEAN_MOTION_DDOT></tleParameters></data></segment></body></omm>
<omm id="CCSDS_OMM_VERS" version="2.0">
<header><CREATION_DATE/><ORIGINATOR/></header><body><segment><metadata><OBJECT_NAME>GLOBALSTAR M056</OBJECT_NAME><OBJECT_ID>1999-058C</OBJECT_ID><CENTER_NAME>EARTH</CENTER_NAME><REF_FRAME>TEME</REF_FRAME><TIME_SYSTEM>UTC</TIME_SYSTEM><MEAN_ELEMENT_THEORY>SGP4</MEAN_ELEMENT_THEORY></metadata><data><meanElements><EPOCH>2024-10-13T03:05:53.891808</EPOCH><MEAN_MOTION>12.04777344</MEAN_MOTION><ECCENTRICITY>.0001842</ECCENTRICITY><INCLINATION>51.9950</INCLINATION><RA_OF_ASC_NODE>163.8408</RA_OF_ASC_NODE><ARG_OF_PERICENTER>59.3323</ARG_OF_PERICENTER><MEAN_ANOMALY>108.4783</MEAN_ANOMALY></meanElements><tleParameters><EPHEMERIS_TYPE>0</EPHEMERIS_TYPE><CLASSIFICATION_TYPE>U</CLASSIFICATION_TYPE><NORAD_CAT_ID>25945</NORAD_CAT_ID><ELEMENT_SET_NO>999</ELEMENT_SET_NO><REV_AT_EPOCH>13284</REV_AT_EPOCH><BSTAR>-.63814E-4</BSTAR><MEAN_MOTION_DOT>-.93E-6</MEAN_MOTION_DOT><MEAN_MOTION_DDOT>0</MEAN_MOTION_DDOT></tleParameters></data></segment></body></omm>
<omm id="CCSDS_OMM_VERS" version="2.0">
<header><CREATION_DATE/><ORIGINATOR/></header><body><segment><metadata><OBJECT_NAME>GLOBALSTAR M031</OBJECT_NAME><OBJECT_ID>1999-058D</OBJECT_ID><CENTER_NAME>EARTH</CENTER_NAME><REF_FRAME>TEME</REF_FRAME><TIME_SYSTEM>UTC</TIME_SYSTEM><MEAN_ELEMENT_THEORY>SGP4</MEAN_ELEMENT_THEORY></metadata><data><meanElements><EPOCH>2024-10-13T13:41:53.975904</EPOCH><MEAN_MOTION>12.16018877</MEAN_MOTION><ECCENTRICITY>.0001968</ECCENTRICITY><INCLINATION>51.9965</INCLINATION><RA_OF_ASC_NODE>69.7252</RA_OF_ASC_NODE><ARG_OF_PERICENTER>61.5426</ARG_OF_PERICENTER><MEAN_ANOMALY>345.2176</MEAN_ANOMALY></meanElements><tleParameters><EPHEMERIS_TYPE>0</EPHEMERIS_TYPE><CLASSIFICATION_TYPE>U</CLASSIFICATION_TYPE><NORAD_CAT_ID>25946</NORAD_CAT_ID><ELEMENT_SET_NO>999</ELEMENT_SET_NO><REV_AT_EPOCH>13454</REV_AT_EPOCH><BSTAR>-.19703E-4</BSTAR><MEAN_MOTION_DOT>-.92E-6</MEAN_MOTION_DOT><MEAN_MOTION_DDOT>0</MEAN_MOTION_DDOT></tleParameters></data></segment></body></omm>
<omm id="CCSDS_OMM_VERS" version="2.0">
<header><CREATION_DATE/><ORIGINATOR/></header><body><segment><metadata><OBJECT_NAME>GLOBALSTAR M034</OBJECT_NAME><OBJECT_ID>1999-062B</OBJECT_ID><CENTER_NAME>EARTH</CENTER_NAME><REF_FRAME>TEME</REF_FRAME><TIME_SYSTEM>UTC</TIME_SYSTEM><MEAN_ELEMENT_THEORY>SGP4</MEAN_ELEMENT_THEORY></metadata><data><meanElements><EPOCH>2024-10-13T10:34:35.588352</EPOCH><MEAN_MOTION>11.79434236</MEAN_MOTION><ECCENTRICITY>.0013953</ECCENTRICITY><INCLINATION>51.9872</INCLINATION><RA_OF_ASC_NODE>292.7829</RA_OF_ASC_NODE><ARG_OF_PERICENTER>296.3762</ARG_OF_PERICENTER><MEAN_ANOMALY>227.8224</MEAN_ANOMALY></meanElements><tleParameters><EPHEMERIS_TYPE>0</EPHEMERIS_TYPE><CLASSIFICATION_TYPE>U</CLASSIFICATION_TYPE><NORAD_CAT_ID>25962</NORAD_CAT_ID><ELEMENT_SET_NO>999</ELEMENT_SET_NO><REV_AT_EPOCH>10927</REV_AT_EPOCH><BSTAR>.82578E-3</BSTAR><MEAN_MOTION_DOT>-.29E-6</MEAN_MOTION_DOT><MEAN_MOTION_DDOT>0</MEAN_MOTION_DDOT></tleParameters></data></segment></body></omm>
<omm id="CCSDS_OMM_VERS" version="2.0">
<header><CREATION_DATE/><ORIGINATOR/></header><body><segment><metadata><OBJECT_NAME>GLOBALSTAR M029</OBJECT_NAME><OBJECT_ID>1999-062C</OBJECT_ID><CENTER_NAME>EARTH</CENTER_NAME><REF_FRAME>TEME</REF_FRAME><TIME_SYSTEM>UTC</TIME_SYSTEM><MEAN_ELEMENT_THEORY>SGP4</MEAN_ELEMENT_THEORY></metadata><data><meanElements><EPOCH>2024-10-13T08:24:44.066592</EPOCH><MEAN_MOTION>11.99884639</MEAN_MOTION><ECCENTRICITY>.0002312</ECCENTRICITY><INCLINATION>51.9825</INCLINATION><RA_OF_ASC_NODE>43.1855</RA_OF_ASC_NODE><ARG_OF_PERICENTER>9.5514</ARG_OF_PERICENTER><MEAN_ANOMALY>23.4746</MEAN_ANOMALY></meanElements><tleParameters><EPHEMERIS_TYPE>0</EPHEMERIS_TYPE><CLASSIFICATION_TYPE>U</CLASSIFICATION_TYPE><NORAD_CAT_ID>25963</NORAD_CAT_ID><ELEMENT_SET_NO>999</ELEMENT_SET_NO><REV_AT_EPOCH>13954</REV_AT_EPOCH><BSTAR>.37621E-3</BSTAR><MEAN_MOTION_DOT>-.56E-6</MEAN_MOTION_DOT><MEAN_MOTION_DDOT>0</MEAN_MOTION_DDOT></tleParameters></data></segment></body></omm>
<omm id="CCSDS_OMM_VERS" version="2.0">
<header><CREATION_DATE/><ORIGINATOR/></header><body><segment><metadata><OBJECT_NAME>GLOBALSTAR M061</OBJECT_NAME><OBJECT_ID>1999-062D</OBJECT_ID><CENTER_NAME>EARTH</CENTER_NAME><REF_FRAME>TEME</REF_FRAME><TIME_SYSTEM>UTC</TIME_SYSTEM><MEAN_ELEMENT_THEORY>SGP4</MEAN_ELEMENT_THEORY></metadata><data><meanElements><EPOCH>2024-10-13T12:48:26.750880</EPOCH><MEAN_MOTION>11.76767268</MEAN_MOTION><ECCENTRICITY>.0005377</ECCENTRICITY><INCLINATION>51.9768</INCLINATION><RA_OF_ASC_NODE>113.3016</RA_OF_ASC_NODE><ARG_OF_PERICENTER>213.4540</ARG_OF_PERICENTER><MEAN_ANOMALY>180.1819</MEAN_ANOMALY></meanElements><tleParameters><EPHEMERIS_TYPE>0</EPHEMERIS_TYPE><CLASSIFICATION_TYPE>U</CLASSIFICATION_TYPE><NORAD_CAT_ID>25964</NORAD_CAT_ID><ELEMENT_SET_NO>999</ELEMENT_SET_NO><REV_AT_EPOCH>9214</REV_AT_EPOCH><BSTAR>.9874E-3</BSTAR><MEAN_MOTION_DOT>-.2E-6</MEAN_MOTION_DOT><MEAN_MOTION_DDOT>0</MEAN_MOTION_DDOT></tleParameters></data></segment></body></omm>

</ndm>
