GLOBALSTAR M057         
1 25943U 99058A   24287.49745412 -.00000009  00000+0  76642-3 0  9990
2 25943  52.0004 328.2962 0002243 225.2446 134.8221 12.24801987136704
GLOBALSTAR M056         
1 25945U 99058C   24287.12909597 -.00000093  00000+0 -63814-4 0  9990
2 25945  51.9950 163.8408 0001842  59.3323 108.4783 12.04777344132844
GLOBALSTAR M031         
1 25946U 99058D   24287.57076361 -.00000092  00000+0 -19703-4 0  9991
2 25946  51.9965  69.7252 0001968  61.5426 345.2176 12.16018877134548
GLOBALSTAR M034         
1 25962U 99062B   24287.44068968 -.00000029  00000+0  82578-3 0  9992
2 25962  51.9872 292.7829 0013953 296.3762 227.8224 11.79434236109279
GLOBALSTAR M029         
1 25963U 99062C   24287.35051003 -.00000056  00000+0  37621-3 0  9994
2 25963  51.9825  43.1855 0002312   9.5514  23.4746 11.99884639139541
GLOBALSTAR M061         
1 25964U 99062D   24287.53364295 -.00000020  00000+0  98740-3 0  9995
2 25964  51.9768 113.3016 0005377 213.4540 180.1819 11.76767268 92145
